MOLNIYA 2-9             
1 07276U 74026A   22353.63426623  .00000229  00000+0  00000+0 0  9999
2 07276  64.2819 201.6868 6411643 278.8892  18.3623  2.45096298253923
MOLNIYA 2-10            
1 07376U 74056A   22350.39284194  .00001182  00000+0  00000+0 0  9997
2 07376  64.3847  75.8091 6767823 285.2426  13.7548  2.01156260354019
MOLNIYA 1-S             
1 07392U 74060A   22353.82609098  .00000171  00000+0  00000+0 0  9992
2 07392   4.6490 280.1111 0010358 217.1903 293.3745  1.00240082121385
MOLNIYA 1-29            
1 07780U 75036A   22352.61280393  .00000158  00000+0 -65367-1 0  9991
2 07780  63.4154 195.1362 6822415 287.9669  12.6943  2.00591581349315
MOLNIYA 2-14            
1 08195U 75081A   22351.76981939  .00000988  00000+0  00000+0 0  9992
2 08195  63.3870 168.5853 6744123 292.2226  11.9788  2.02056803346597
MOLNIYA 1-32            
1 08601U 76006A   22349.01286806  .00000951  00000+0  00000+0 0  9998
2 08601  63.5288 273.0082 7174251 283.8885  11.6377  2.00060620 56271
MOLNIYA 1-36            
1 09880U 77021A   22353.64067363 -.00001238  00000+0  00000+0 0  9995
2 09880  63.4832 244.6786 7088246 289.5362  10.8471  2.00682464233089
MOLNIYA 3-8             
1 10455U 77105A   22352.91229273 -.00001634  00000+0 -20131-2 0  9998
2 10455  63.4342 329.9500 7337868 282.5391  10.7892  2.00585276330849
MOLNIYA 1-40            
1 10925U 78055A   22353.09907756 -.00000809  00000+0  00000+0 0  9996
2 10925  63.5382  21.7603 7272010 280.7322  11.6373  2.00690128326389
MOLNIYA 3-10            
1 11057U 78095A   22352.31139760  .00000241  00000+0  15036-2 0  9990
2 11057  63.2487 331.7747 5779044 311.7339  11.4854  4.09869001391262
MOLNIYA 3-13            
1 11896U 80063A   22353.37118220 -.00000064  00000+0  00000+0 0  9990
2 11896  62.7585 113.4481 7149405 276.5841  13.6914  2.00634048310808
MOLNIYA 1-49            
1 12156U 81009A   22352.92483271 -.00000941  00000+0 -27566-3 0  9997
2 12156  61.6947 136.8811 7326512 265.2086  15.9858  2.05713336225288
MOLNIYA 1-52            
1 13012U 81123A   22352.85420946  .00001666  00000+0  15907-1 0  9995
2 13012  61.6373 252.1983 7204576 257.3969  20.4021  2.00556455300270
MOLNIYA 1-53            
1 13070U 82015A   22352.02515881 -.00000893  00000+0 -12010-1 0  9997
2 13070  62.5561 191.8893 6982006 283.0879  13.0036  2.00453336298957
MOLNIYA 3-20            
1 13875U 83015A   22353.99814892  .00000770  00000+0  16164-2 0  9999
2 13875  62.6258 323.2842 7386873 259.8951  17.4823  2.00838770227472
MOLNIYA 1-56            
1 13890U 83019A   22353.75332527  .00000137  00000+0  19225-3 0  9993
2 13890  62.9147 348.1483 7448653 265.7095  14.7156  2.00031863290316
MOLNIYA 1-63            
1 15429U 84124A   22353.91022947 -.00000760  00000+0  00000+0 0  9991
2 15429  63.7417 149.7894 6704700 258.3047  25.1871  2.00786082278527
MOLNIYA 3-24            
1 15738U 85040A   22353.58611735 -.00000210  00000+0 -10326-2 0  9990
2 15738  63.5930  47.8609 6858560 247.2320  30.1159  2.55629737308606
MOLNIYA 3-27            
1 16393U 85117A   22353.25737815 -.00000187  00000+0  00000+0 0  9992
2 16393  64.3016  56.9915 7046762 247.2824  27.7561  2.12398123278107
MOLNIYA 1-69            
1 17078U 86089A   22351.25290588  .00000919  00000+0  00000+0 0  9993
2 17078  64.0057 169.0817 6694973 256.6295  26.0213  2.00730629264519
MOLNIYA 3-31            
1 17328U 87008A   22353.36342197  .00000051  00000+0  00000+0 0  9998
2 17328  63.6757 106.1567 7128576 253.3059  23.1906  2.00683282259576
MOLNIYA 1-71            
1 18946U 88017A   22353.33747651 -.00000004  00000+0  00000+0 0  9996
2 18946  63.3531  98.9164 7239967 256.3246  20.4635  2.00575217254807
MOLNIYA 1-75            
1 19807U 89014A   22349.58554395 -.00000166  00000+0  00000+0 0  9993
2 19807  63.9791 264.9404 6795307 266.0993  20.3699  2.00558829247633
MOLNIYA 1-80            
1 21118U 91012A   22353.29036528 -.00000282  00000+0  00000+0 0  9997
2 21118  65.1924 312.9631 6744009 275.2342  17.0850  2.05238128234777
MOLNIYA 3-40            
1 21196U 91022A   22351.08856172  .00001065  00000+0  00000+0 0  9993
2 21196  65.0788 306.8861 6772206 272.1253  18.0392  2.03002466233395
MOLNIYA 1-81            
1 21426U 91043A   22351.95862387 -.00000206  00000+0  00000+0 0  9990
2 21426  64.0154 320.8322 7070545 265.9960  17.8847  2.00622009230845
MOLNIYA 3-41            
1 21706U 91065A   22353.37621127 -.00000715  00000+0  00000+0 0  9993
2 21706  64.0915 145.5675 6917131 254.1729  25.0294  2.04354128230640
MOLNIYA 3-42            
1 22178U 92067A   22352.06948599  .00000254  00000+0  00000+0 0  9997
2 22178  64.6738 196.7180 6418977 264.0315  24.8199  2.20434608 84106
MOLNIYA 1-86            
1 22671U 93035A   22353.87777237  .00000078  00000+0  10493-3 0  9995
2 22671  63.0841 128.9894 4860789  10.0955 356.9048  5.62763482362688
MOLNIYA 1-87            
1 22949U 93079A   22353.40404103  .00001199  00000+0  00000+0 0  9993
2 22949  64.1752  70.9335 6913732 283.1855  13.3959  2.02862680213036
MOLNIYA 1-88            
1 23420U 94081A   22352.35312201  .00000143  00000+0  00000+0 0  9990
2 23420  64.2821 155.2616 5795522 279.6109  22.8156  3.34495345119859
MOLNIYA 3-47            
1 23642U 95042A   22351.97772791  .00000308  00000+0  00000+0 0  9998
2 23642  64.3055  52.6365 6955837 283.4589  13.0250  2.01922775200728
MOLNIYA 1-90            
1 24960U 97054A   22353.54070855  .00000091  00000+0 -13832-2 0  9994
2 24960  63.6907 120.8766 6097656 297.3399  14.1685  3.18687535213901
MOLNIYA 1-91            
1 25485U 98054A   22352.41083829  .00000181  00000+0  22925-2 0  9990
2 25485  63.1146 121.6301 6771621 291.8564  31.6955  2.36442169182733
MOLNIYA 3-50            
1 25847U 99036A   22352.91284905 -.00000453  00000+0 -37400-2 0  9994
2 25847  63.2892 306.3518 7328890 282.5128  10.9181  2.00656662171810
